EFHF 211120Z 25008KT 220V300 9999 BKN013 02/M01 Q0985=
METAR EFHK 211150Z 25010KT 9999 FEW010 BKN014 01/M00 Q0985 BECMG BKN015=
METAR EFTU 211120Z AUTO 31011KT 9000 -RA OVC005/// 01/01 Q0986 R08/29//95=
